CCSDS_OMM_VERS = 2.0
CREATION_DATE  = 
ORIGINATOR     = 

OBJECT_NAME    = SL-16 R/B
OBJECT_ID      = 1993-016B
CENTER_NAME    = EARTH
REF_FRAME      = TEME
TIME_SYSTEM    = UTC
MEAN_ELEMENT_THEORY = SGP/SGP4

EPOCH          = 2026-03-04T21:40:37.565184
MEAN_MOTION    = 14.15306152
ECCENTRICITY   = .0011455
INCLINATION    = 71.0061
RA_OF_ASC_NODE = 225.2340
ARG_OF_PERICENTER = 320.9227
MEAN_ANOMALY   = 39.1067

EPHEMERIS_TYPE = 0
CLASSIFICATION_TYPE = U
NORAD_CAT_ID   = 22566
ELEMENT_SET_NO = 999
REV_AT_EPOCH   = 70149
BSTAR          = .17642E-3
MEAN_MOTION_DOT = .296E-5
MEAN_MOTION_DDOT = 0

CCSDS_OMM_VERS = 2.0
CREATION_DATE  = 
ORIGINATOR     = 

OBJECT_NAME    = COSMOS 2242
OBJECT_ID      = 1993-024A
CENTER_NAME    = EARTH
REF_FRAME      = TEME
TIME_SYSTEM    = UTC
MEAN_ELEMENT_THEORY = SGP/SGP4

EPOCH          = 2026-03-05T02:08:32.332704
MEAN_MOTION    = 14.96525659
ECCENTRICITY   = .0015491
INCLINATION    = 82.5152
RA_OF_ASC_NODE = 271.1182
ARG_OF_PERICENTER = 325.4082
MEAN_ANOMALY   = 34.6130

EPHEMERIS_TYPE = 0
CLASSIFICATION_TYPE = U
NORAD_CAT_ID   = 22626
ELEMENT_SET_NO = 999
REV_AT_EPOCH   = 77970
BSTAR          = .18458E-3
MEAN_MOTION_DOT = .2128E-4
MEAN_MOTION_DDOT = 0

CCSDS_OMM_VERS = 2.0
CREATION_DATE  = 
ORIGINATOR     = 

OBJECT_NAME    = SL-16 R/B
OBJECT_ID      = 1993-059B
CENTER_NAME    = EARTH
REF_FRAME      = TEME
TIME_SYSTEM    = UTC
MEAN_ELEMENT_THEORY = SGP/SGP4

EPOCH          = 2026-03-05T02:25:14.950272
MEAN_MOTION    = 14.17232241
ECCENTRICITY   = .0018753
INCLINATION    = 70.9922
RA_OF_ASC_NODE = 20.8021
ARG_OF_PERICENTER = 223.0945
MEAN_ANOMALY   = 136.8712

EPHEMERIS_TYPE = 0
CLASSIFICATION_TYPE = U
NORAD_CAT_ID   = 22803
ELEMENT_SET_NO = 999
REV_AT_EPOCH   = 67888
BSTAR          = -.69824E-5
MEAN_MOTION_DOT = -.62E-6
MEAN_MOTION_DDOT = 0

CCSDS_OMM_VERS = 2.0
CREATION_DATE  = 
ORIGINATOR     = 

OBJECT_NAME    = ARIANE 40 R/B
OBJECT_ID      = 1993-061H
CENTER_NAME    = EARTH
REF_FRAME      = TEME
TIME_SYSTEM    = UTC
MEAN_ELEMENT_THEORY = SGP/SGP4

EPOCH          = 2026-03-05T03:49:48.436896
MEAN_MOTION    = 14.32858189
ECCENTRICITY   = .0009623
INCLINATION    = 98.4924
RA_OF_ASC_NODE = 133.1364
ARG_OF_PERICENTER = 300.0937
MEAN_ANOMALY   = 59.9292

EPHEMERIS_TYPE = 0
CLASSIFICATION_TYPE = U
NORAD_CAT_ID   = 22830
ELEMENT_SET_NO = 999
REV_AT_EPOCH   = 69345
BSTAR          = .11389E-3
MEAN_MOTION_DOT = .268E-5
MEAN_MOTION_DDOT = 0

CCSDS_OMM_VERS = 2.0
CREATION_DATE  = 
ORIGINATOR     = 

OBJECT_NAME    = COSMOS 2278
OBJECT_ID      = 1994-023A
CENTER_NAME    = EARTH
REF_FRAME      = TEME
TIME_SYSTEM    = UTC
MEAN_ELEMENT_THEORY = SGP/SGP4

EPOCH          = 2026-03-04T12:08:04.736832
MEAN_MOTION    = 14.14376329
ECCENTRICITY   = .0007692
INCLINATION    = 71.0543
RA_OF_ASC_NODE = 185.9417
ARG_OF_PERICENTER = 23.7678
MEAN_ANOMALY   = 336.3799

EPHEMERIS_TYPE = 0
CLASSIFICATION_TYPE = U
NORAD_CAT_ID   = 23087
ELEMENT_SET_NO = 999
REV_AT_EPOCH   = 64407
BSTAR          = .18561294E-3
MEAN_MOTION_DOT = .308E-5
MEAN_MOTION_DDOT = 0

CCSDS_OMM_VERS = 2.0
CREATION_DATE  = 
ORIGINATOR     = 

OBJECT_NAME    = SL-16 R/B
OBJECT_ID      = 1994-023B
CENTER_NAME    = EARTH
REF_FRAME      = TEME
TIME_SYSTEM    = UTC
MEAN_ELEMENT_THEORY = SGP/SGP4

EPOCH          = 2026-03-05T02:52:42.655296
MEAN_MOTION    = 14.15013224
ECCENTRICITY   = .0005664
INCLINATION    = 70.9987
RA_OF_ASC_NODE = 80.4849
ARG_OF_PERICENTER = 290.1299
MEAN_ANOMALY   = 69.9214

EPHEMERIS_TYPE = 0
CLASSIFICATION_TYPE = U
NORAD_CAT_ID   = 23088
ELEMENT_SET_NO = 999
REV_AT_EPOCH   = 64544
BSTAR          = -.54391E-4
MEAN_MOTION_DOT = -.153E-5
MEAN_MOTION_DDOT = 0

CCSDS_OMM_VERS = 2.0
CREATION_DATE  = 
ORIGINATOR     = 

OBJECT_NAME    = SL-16 R/B
OBJECT_ID      = 1994-074B
CENTER_NAME    = EARTH
REF_FRAME      = TEME
TIME_SYSTEM    = UTC
MEAN_ELEMENT_THEORY = SGP/SGP4

EPOCH          = 2026-03-05T01:15:58.536576
MEAN_MOTION    = 14.79401664
ECCENTRICITY   = .0005466
INCLINATION    = 97.7114
RA_OF_ASC_NODE = 95.0582
ARG_OF_PERICENTER = 228.2670
MEAN_ANOMALY   = 160.2790

EPHEMERIS_TYPE = 0
CLASSIFICATION_TYPE = U
NORAD_CAT_ID   = 23343
ELEMENT_SET_NO = 999
REV_AT_EPOCH   = 68656
BSTAR          = .91116E-4
MEAN_MOTION_DOT = .63E-5
MEAN_MOTION_DDOT = 0

CCSDS_OMM_VERS = 2.0
CREATION_DATE  = 
ORIGINATOR     = 

OBJECT_NAME    = SL-16 R/B
OBJECT_ID      = 1994-077B
CENTER_NAME    = EARTH
REF_FRAME      = TEME
TIME_SYSTEM    = UTC
MEAN_ELEMENT_THEORY = SGP/SGP4

EPOCH          = 2026-03-05T02:28:48.336672
MEAN_MOTION    = 14.15561763
ECCENTRICITY   = .0003355
INCLINATION    = 70.9852
RA_OF_ASC_NODE = 2.1366
ARG_OF_PERICENTER = 218.7931
MEAN_ANOMALY   = 141.2951

EPHEMERIS_TYPE = 0
CLASSIFICATION_TYPE = U
NORAD_CAT_ID   = 23405
ELEMENT_SET_NO = 999
REV_AT_EPOCH   = 61558
BSTAR          = -.91823E-4
MEAN_MOTION_DOT = -.228E-5
MEAN_MOTION_DDOT = 0

CCSDS_OMM_VERS = 2.0
CREATION_DATE  = 
ORIGINATOR     = 

OBJECT_NAME    = ARIANE 40+ R/B
OBJECT_ID      = 1995-021B
CENTER_NAME    = EARTH
REF_FRAME      = TEME
TIME_SYSTEM    = UTC
MEAN_ELEMENT_THEORY = SGP/SGP4

EPOCH          = 2026-03-05T03:40:13.087200
MEAN_MOTION    = 14.39768547
ECCENTRICITY   = .000745
INCLINATION    = 98.4506
RA_OF_ASC_NODE = 135.6969
ARG_OF_PERICENTER = 148.6965
MEAN_ANOMALY   = 232.6799

EPHEMERIS_TYPE = 0
CLASSIFICATION_TYPE = U
NORAD_CAT_ID   = 23561
ELEMENT_SET_NO = 999
REV_AT_EPOCH   = 61859
BSTAR          = .13507E-3
MEAN_MOTION_DOT = .38E-5
MEAN_MOTION_DDOT = 0

CCSDS_OMM_VERS = 2.0
CREATION_DATE  = 
ORIGINATOR     = 

OBJECT_NAME    = SL-16 R/B
OBJECT_ID      = 1995-058B
CENTER_NAME    = EARTH
REF_FRAME      = TEME
TIME_SYSTEM    = UTC
MEAN_ELEMENT_THEORY = SGP/SGP4

EPOCH          = 2026-03-05T00:56:47.925312
MEAN_MOTION    = 14.15492939
ECCENTRICITY   = .0010986
INCLINATION    = 71.0212
RA_OF_ASC_NODE = 190.0170
ARG_OF_PERICENTER = 133.9448
MEAN_ANOMALY   = 226.2583

EPHEMERIS_TYPE = 0
CLASSIFICATION_TYPE = U
NORAD_CAT_ID   = 23705
ELEMENT_SET_NO = 999
REV_AT_EPOCH   = 56719
BSTAR          = .6005E-4
MEAN_MOTION_DOT = .7E-6
MEAN_MOTION_DDOT = 0

CCSDS_OMM_VERS = 2.0
CREATION_DATE  = 
ORIGINATOR     = 

OBJECT_NAME    = SL-16 R/B
OBJECT_ID      = 1996-051B
CENTER_NAME    = EARTH
REF_FRAME      = TEME
TIME_SYSTEM    = UTC
MEAN_ELEMENT_THEORY = SGP/SGP4

EPOCH          = 2026-03-04T12:00:25.932096
MEAN_MOTION    = 14.12414119
ECCENTRICITY   = .00155473
INCLINATION    = 70.7597
RA_OF_ASC_NODE = 186.2217
ARG_OF_PERICENTER = 155.7703
MEAN_ANOMALY   = 204.4151

EPHEMERIS_TYPE = 0
CLASSIFICATION_TYPE = U
NORAD_CAT_ID   = 24298
ELEMENT_SET_NO = 999
REV_AT_EPOCH   = 52091
BSTAR          = .83515948E-4
MEAN_MOTION_DOT = .105E-5
MEAN_MOTION_DDOT = 0

CCSDS_OMM_VERS = 2.0
CREATION_DATE  = 
ORIGINATOR     = 

OBJECT_NAME    = ORBVIEW 2 (SEASTAR)
OBJECT_ID      = 1997-037A
CENTER_NAME    = EARTH
REF_FRAME      = TEME
TIME_SYSTEM    = UTC
MEAN_ELEMENT_THEORY = SGP/SGP4

EPOCH          = 2026-03-05T03:59:07.638432
MEAN_MOTION    = 14.35490983
ECCENTRICITY   = .0003159
INCLINATION    = 98.8557
RA_OF_ASC_NODE = 228.3581
ARG_OF_PERICENTER = 80.9632
MEAN_ANOMALY   = 279.1910

EPHEMERIS_TYPE = 0
CLASSIFICATION_TYPE = U
NORAD_CAT_ID   = 24883
ELEMENT_SET_NO = 999
REV_AT_EPOCH   = 50782
BSTAR          = .166E-3
MEAN_MOTION_DOT = .431E-5
MEAN_MOTION_DDOT = 0

